OBJECT_NAME,OBJECT_ID,EPOCH,MEAN_MOTION,ECCENTRICITY,INCLINATION,RA_OF_ASC_NODE,ARG_OF_PERICENTER,MEAN_ANOMALY,EPHEMERIS_TYPE,CLASSIFICATION_TYPE,NORAD_CAT_ID,ELEMENT_SET_NO,REV_AT_EPOCH,BSTAR,MEAN_MOTION_DOT,MEAN_MOTION_DDOT
IONOSFERA-M 2,2024-199B,2026-06-09T06:45:01.937952,14.22756014,.00013583,98.7182,33.4474,45.9709,314.1581,0,U,61736,999,12970,.35574761E-4,.36E-6,0
PRSC-EO1,2025-012A,2026-06-09T06:42:59.025312,15.17668578,.00042164,97.4225,232.8941,288.1961,71.8814,0,U,62725,999,7699,.31590485E-3,.6298E-4,0
BIOMASS,2025-090A,2026-06-09T06:15:25.793280,14.67531697,.00013775,98.0743,347.6926,90.7576,269.3786,0,U,63772,999,5952,.128874E-3,.683E-5,0
GOSAT-GW (IBUKI GW),2025-141A,2026-06-09T06:44:46.937184,14.67552249,.00014309,98.0569,97.7269,84.2690,275.8678,0,U,64694,999,5068,.12805182E-3,.679E-5,0
IONOSFERA-M 3,2025-155A,2026-06-09T05:18:57.645792,14.21485119,.0000524,98.6021,122.3272,173.5227,186.5958,0,U,64876,999,4527,.41263089E-4,.47E-6,0
IONOSFERA-M 4,2025-155B,2026-06-09T06:09:09.051264,14.21487284,.00007688,98.6020,122.2787,117.3964,242.7292,0,U,64877,999,4527,.39878846E-4,.44E-6,0
MICROCARB,2025-156A,2026-06-09T04:45:34.911072,14.72317356,.0015121,97.9831,237.4782,300.1203,59.8505,0,U,64899,999,4679,.79256965E-4,.452E-5,0
CO3D 3,2025-156B,2026-06-09T05:21:13.818240,15.20196476,.00010938,97.4327,239.0306,133.3622,226.7705,0,U,64900,999,4832,.20020619E-3,.4268E-4,0
CO3D 4,2025-156C,2026-06-08T23:02:18.632832,15.20199351,.0000729,97.4332,238.7713,27.5039,332.6234,0,U,64901,999,4828,.16169789E-4,.283E-5,0
CO3D 2,2025-156D,2026-06-09T06:08:12.930144,15.20211240,.00014214,97.4326,238.9617,115.1287,245.0096,0,U,64902,999,4832,.17173412E-3,.3653E-4,0
CO3D 1,2025-156E,2026-06-09T06:08:25.967040,15.20198639,.00011777,97.4326,238.9621,115.1273,245.0085,0,U,64903,999,4832,.17896757E-3,.3808E-4,0
PRSC-S1,2025-164A,2026-06-09T04:12:44.737056,15.06383426,.00075266,41.1315,332.9315,296.5791,63.4251,0,U,65055,999,4722,.29592886E-3,.4262E-4,0
SENTINEL-6B,2025-264A,2026-06-09T06:40:39.789984,12.80929835,.00080466,66.0386,151.6055,269.2558,90.7536,0,U,66514,999,2615,.1531825E-3,-.26E-6,0
CAS500-3,2025-274F,2026-06-09T06:45:56.843424,14.88301870,.00063483,97.7447,88.5130,130.9022,229.2745,0,U,66655,999,2897,.1315321E-3,.1163E-4,0
CSG-3,2026-001A,2026-06-09T02:20:45.956832,14.82148066,.00013109,97.8886,343.8168,91.8339,268.3025,0,U,67304,999,2326,.446923E-4,.304E-5,0
PRSC-E03,2026-092A,2026-06-09T05:38:31.091712,15.06629463,.0004985,37.9995,136.5712,308.6635,51.3680,0,U,68835,999,675,.14247458E-3,.2044E-4,0
CAS500-2,2026-100AK,2026-06-09T04:32:46.461696,15.20495018,.00113192,97.4084,58.1822,59.4631,300.7720,0,U,69013,999,559,.27296165E-3,.5906E-4,0
