IONOSFERA-M 2           
1 61736U 24199B   26160.28127243  .00000036  00000+0  35575-4 0  9999
2 61736  98.7182  33.4474 0001358  45.9709 314.1581 14.22756014129700
PRSC-EO1                
1 62725U 25012A   26160.27984983  .00006298  00000+0  31590-3 0  9992
2 62725  97.4225 232.8941 0004216 288.1961  71.8814 15.17668578 76994
BIOMASS                 
1 63772U 25090A   26160.26071520  .00000683  00000+0  12887-3 0  9994
2 63772  98.0743 347.6926 0001377  90.7576 269.3786 14.67531697 59528
GOSAT-GW (IBUKI GW)     
1 64694U 25141A   26160.28109881  .00000679  00000+0  12805-3 0  9994
2 64694  98.0569  97.7269 0001430  84.2690 275.8678 14.67552249 50682
IONOSFERA-M 3           
1 64876U 25155A   26160.22150053  .00000047  00000+0  41263-4 0  9992
2 64876  98.6021 122.3272 0000524 173.5227 186.5958 14.21485119 45272
IONOSFERA-M 4           
1 64877U 25155B   26160.25635476  .00000044  00000+0  39879-4 0  9990
2 64877  98.6020 122.2787 0000768 117.3964 242.7292 14.21487284 45277
MICROCARB               
1 64899U 25156A   26160.19832073  .00000452  00000+0  79257-4 0  9997
2 64899  97.9831 237.4782 0015121 300.1203  59.8505 14.72317356 46794
CO3D 3                  
1 64900U 25156B   26160.22307660  .00004268  00000+0  20021-3 0  9996
2 64900  97.4327 239.0306 0001093 133.3622 226.7705 15.20196476 48326
CO3D 4                  
1 64901U 25156C   26159.95993788  .00000283  00000+0  16170-4 0  9991
2 64901  97.4332 238.7713 0000729  27.5039 332.6234 15.20199351 48286
CO3D 2                  
1 64902U 25156D   26160.25570521  .00003653  00000+0  17173-3 0  9990
2 64902  97.4326 238.9617 0001421 115.1287 245.0096 15.20211240 48324
CO3D 1                  
1 64903U 25156E   26160.25585610  .00003808  00000+0  17897-3 0  9991
2 64903  97.4326 238.9621 0001177 115.1273 245.0085 15.20198639 48327
PRSC-S1                 
1 65055U 25164A   26160.17551779  .00004262  00000+0  29593-3 0  9990
2 65055  41.1315 332.9315 0007526 296.5791  63.4251 15.06383426 47227
SENTINEL-6B             
1 66514U 25264A   26160.27823831 -.00000026  00000+0  15318-3 0  9999
2 66514  66.0386 151.6055 0008046 269.2558  90.7536 12.80929835 26152
CAS500-3                
1 66655U 25274F   26160.28190791  .00001163  00000+0  13153-3 0  9996
2 66655  97.7447  88.5130 0006348 130.9022 229.2745 14.88301870 28978
CSG-3                   
1 67304U 26001A   26160.09775413  .00000304  00000+0  44692-4 0  9995
2 67304  97.8886 343.8168 0001310  91.8339 268.3025 14.82148066 23268
PRSC-E03                
1 68835U 26092A   26160.23508208  .00002044  00000+0  14247-3 0  9992
2 68835  37.9995 136.5712 0004985 308.6635  51.3680 15.06629463  6759
CAS500-2                
1 69013U 26100AK  26160.18942664  .00005906  00000+0  27296-3 0  9991
2 69013  97.4084  58.1822 0011319  59.4631 300.7720 15.20495018  5595
